GRBBETA                 
1 60237U 24128C   26140.94061724  .00003036  00000+0  21533-3 0  9999
2 60237  61.9903 311.8442 0044395 129.0524 231.4532 15.06387472102162
TRANSPORTER-11 OBJECT A 
1 60468U 24149A   26141.18956160  .00005874  00000+0  19019-3 0  9990
2 60468  97.3730 221.2132 0002145 345.3070  14.8109 15.32416664 97920
WARATAH SEED-1          
1 60469U 24149B   26141.19818155  .00009068  00000+0  26780-3 0  9995
2 60469  97.3687 221.7631 0001048  25.5102 334.6193 15.35188896 97972
PHISAT 2                
1 60470U 24149C   26141.18197918  .00005750  00000+0  19684-3 0  9992
2 60470  97.3757 220.5575 0001597  43.5596 316.5771 15.30624059 97862
LEMUR-2-TOMATOKECHUP    
1 60471U 24149D   26141.19704921  .00007377  00000+0  21683-3 0  9991
2 60471  97.3795 223.1882 0001270  38.7267 321.4067 15.35406858 98026
CONNECTA IOT-1          
1 60472U 24149E   26141.16554132  .00002829  00000+0  12217-3 0  9996
2 60472  97.3759 217.9174 0002740  51.6498 308.4985 15.23304366 97688
LOPEN                   
1 60473U 24149F   26141.21688474  .00010315  00000+0  27079-3 0  9991
2 60473  97.3774 224.3916 0001586  57.2339 302.9060 15.38822672 98118
ROCK                    
1 60474U 24149G   26141.20343283  .00009870  00000+0  25919-3 0  9992
2 60474  97.3773 224.3956 0001533  45.0603 315.0766 15.38825649 98118
CONNECTA IOT-3          
1 60475U 24149H   26141.18712556  .00002822  00000+0  12185-3 0  9994
2 60475  97.3736 217.6998 0003288  32.0372 328.1064 15.23315266 97698
QUBE                    
1 60476U 24149J   26141.19221352  .00016904  00000+0  35013-3 0  9996
2 60476  97.3772 227.1338 0000990  18.4534 341.6751 15.45829752 98292
WREN-1                  
1 60478U 24149L   26141.18596808  .00014294  00000+0  35544-3 0  9997
2 60478  97.3762 225.0389 0003816  20.6920 339.4480 15.40393849 98168
TOMORROW-S1             
1 60479U 24149M   26141.16971223  .00005025  00000+0  16367-3 0  9998
2 60479  97.3747 221.7357 0002394  24.5553 335.5803 15.32293841 97959
FLOCK 4BE-18            
1 60480U 24149N   26141.20438640  .00011314  00000+0  27723-3 0  9992
2 60480  97.3724 224.6714 0003001  19.0732 341.0626 15.40903452 98152
FLOCK 4BE-7             
1 60481U 24149P   26141.11769398  .00015253  00000+0  39557-3 0  9994
2 60481  97.3757 223.9813 0002451  31.0470 329.0920 15.39097006 98084
TOMORROW-S2             
1 60485U 24149T   26141.20064677  .00005247  00000+0  17069-3 0  9992
2 60485  97.3814 222.2300 0003273  41.3046 318.8443 15.32309661 97958
FLOCK 4BE-36            
1 60486U 24149U   26141.19127421  .00011788  00000+0  28038-3 0  9993
2 60486  97.3741 225.3156 0003452  33.6640 326.4826 15.41790529 98198
FLOCK 4BE-25            
1 60487U 24149V   26141.22521026  .00009680  00000+0  26067-3 0  9995
2 60487  97.3793 224.2085 0002058  43.6750 316.4658 15.38052559 98090
FLOCK 4BE-31            
1 60488U 24149W   26141.17943994  .00013094  00000+0  29946-3 0  9995
2 60488  97.3794 226.0889 0002566  46.6467 313.4994 15.42947712 98219
FLOCK 4BE-20            
1 60489U 24149X   26141.17500308  .00009886  00000+0  27289-3 0  9996
2 60489  97.3694 223.1060 0003463  31.3787 328.7663 15.37273690 98067
FLOCK 4BE-23            
1 60490U 24149Y   26141.22388217  .00009949  00000+0  27781-3 0  9994
2 60490  97.3778 223.5162 0003434  39.3050 320.8444 15.36915871 98050
FLOCK 4BE-15            
1 60491U 24149Z   26141.22252972  .00089545  00000+0  13920-2 0  9992
2 60491  97.3692 225.7089 0002694 131.3765 228.7720 15.53623960 98238
FLOCK 4BE-17            
1 60492U 24149AA  26141.17894510  .00011186  00000+0  29259-3 0  9996
2 60492  97.3769 224.3529 0002644  32.3659 327.7748 15.38910372 98100
NUSAT-50 (NANCY ROMAN)  
1 60493U 24149AB  26141.21587642  .00006298  00000+0  22404-3 0  9990
2 60493  97.3784 222.6703 0001787 305.1975  54.9097 15.29329996 98003
FLOCK 4BE-22            
1 60494U 24149AC  26141.18437835  .00011468  00000+0  28688-3 0  9990
2 60494  97.3729 224.5085 0003404  34.6328 325.5140 15.40267443 98143
FLOCK 4BE-34            
1 60495U 24149AD  26141.20174005  .00010485  00000+0  26224-3 0  9993
2 60495  97.3774 225.3306 0003756  45.4756 314.6797 15.40296608 98179
TYCHE                   
1 60496U 24149AE  26141.24871089  .00003041  00000+0  12172-3 0  9991
2 60496  97.3752 219.4260 0002997  47.0206 313.1283 15.25826572 97796
FLOCK 4BE-32            
1 60497U 24149AF  26141.18651353  .00013045  00000+0  31677-3 0  9991
2 60497  97.3717 224.8429 0003614  40.4015 319.7500 15.41138032 98179
NUSAT-48 (HENRIETTA LE*)
1 60498U 24149AG  26141.21154401  .00006603  00000+0  23034-3 0  9998
2 60498  97.3902 222.8480 0004218  33.4675 326.6831 15.29948093 98015
FLOCK 4BE-30            
1 60499U 24149AH  26141.19671033  .00072963  00000+0  13002-2 0  9996
2 60499  97.3780 225.9482 0001924 169.4928 190.6364 15.49852382 97586
