OBJECT_NAME,OBJECT_ID,EPOCH,MEAN_MOTION,ECCENTRICITY,INCLINATION,RA_OF_ASC_NODE,ARG_OF_PERICENTER,MEAN_ANOMALY,EPHEMERIS_TYPE,CLASSIFICATION_TYPE,NORAD_CAT_ID,ELEMENT_SET_NO,REV_AT_EPOCH,BSTAR,MEAN_MOTION_DOT,MEAN_MOTION_DDOT
GRBBETA,2024-128C,2026-05-20T22:34:29.329536,15.06387472,.00443956,61.9903,311.8442,129.0524,231.4532,0,U,60237,999,10216,.21532655E-3,.3036E-4,0
TRANSPORTER-11 OBJECT A,2024-149A,2026-05-21T04:32:58.122240,15.32416664,.00021456,97.3730,221.2132,345.3070,14.8109,0,U,60468,999,9792,.19018681E-3,.5874E-4,0
WARATAH SEED-1,2024-149B,2026-05-21T04:45:22.885920,15.35188896,.00010485,97.3687,221.7631,25.5102,334.6193,0,U,60469,999,9797,.26779539E-3,.9068E-4,0
PHISAT 2,2024-149C,2026-05-21T04:22:03.001152,15.30624059,.00015978,97.3757,220.5575,43.5596,316.5771,0,U,60470,999,9786,.19684264E-3,.575E-4,0
LEMUR-2-TOMATOKECHUP,2024-149D,2026-05-21T04:43:45.051744,15.35406858,.000127,97.3795,223.1882,38.7267,321.4067,0,U,60471,999,9802,.21683397E-3,.7377E-4,0
CONNECTA IOT-1,2024-149E,2026-05-21T03:58:22.770048,15.23304366,.00027406,97.3759,217.9174,51.6498,308.4985,0,U,60472,999,9768,.1221736E-3,.2829E-4,0
LOPEN,2024-149F,2026-05-21T05:12:18.841536,15.38822672,.00015868,97.3774,224.3916,57.2339,302.9060,0,U,60473,999,9811,.27079414E-3,.10315E-3,0
ROCK,2024-149G,2026-05-21T04:52:56.596512,15.38825649,.00015331,97.3773,224.3956,45.0603,315.0766,0,U,60474,999,9811,.25919398E-3,.987E-4,0
CONNECTA IOT-3,2024-149H,2026-05-21T04:29:27.648384,15.23315266,.0003288,97.3736,217.6998,32.0372,328.1064,0,U,60475,999,9769,.12185241E-3,.2822E-4,0
QUBE,2024-149J,2026-05-21T04:36:47.248128,15.45829752,.00009906,97.3772,227.1338,18.4534,341.6751,0,U,60476,999,9829,.35012502E-3,.16904E-3,0
WREN-1,2024-149L,2026-05-21T04:27:47.642112,15.40393849,.00038164,97.3762,225.0389,20.6920,339.4480,0,U,60478,999,9816,.35544106E-3,.14294E-3,0
TOMORROW-S1,2024-149M,2026-05-21T04:04:23.136672,15.32293841,.00023943,97.3747,221.7357,24.5553,335.5803,0,U,60479,999,9795,.16366578E-3,.5025E-4,0
FLOCK 4BE-18,2024-149N,2026-05-21T04:54:18.984960,15.40903452,.00030017,97.3724,224.6714,19.0732,341.0626,0,U,60480,999,9815,.27723483E-3,.11314E-3,0
FLOCK 4BE-7,2024-149P,2026-05-21T02:49:28.759872,15.39097006,.00024514,97.3757,223.9813,31.0470,329.0920,0,U,60481,999,9808,.39557481E-3,.15253E-3,0
TOMORROW-S2,2024-149T,2026-05-21T04:48:55.880928,15.32309661,.0003273,97.3814,222.2300,41.3046,318.8443,0,U,60485,999,9795,.17069198E-3,.5247E-4,0
FLOCK 4BE-36,2024-149U,2026-05-21T04:35:26.091744,15.41790529,.00034525,97.3741,225.3156,33.6640,326.4826,0,U,60486,999,9819,.28038114E-3,.11788E-3,0
FLOCK 4BE-25,2024-149V,2026-05-21T05:24:18.166464,15.38052559,.0002058,97.3793,224.2085,43.6750,316.4658,0,U,60487,999,9809,.26067287E-3,.968E-4,0
FLOCK 4BE-31,2024-149W,2026-05-21T04:18:23.610816,15.42947712,.00025662,97.3794,226.0889,46.6467,313.4994,0,U,60488,999,9821,.29946012E-3,.13094E-3,0
FLOCK 4BE-20,2024-149X,2026-05-21T04:12:00.266112,15.37273690,.00034634,97.3694,223.1060,31.3787,328.7663,0,U,60489,999,9806,.27289015E-3,.9886E-4,0
FLOCK 4BE-23,2024-149Y,2026-05-21T05:22:23.419488,15.36915871,.00034345,97.3778,223.5162,39.3050,320.8444,0,U,60490,999,9805,.27780873E-3,.9949E-4,0
FLOCK 4BE-15,2024-149Z,2026-05-21T05:20:26.567808,15.53623960,.00026945,97.3692,225.7089,131.3765,228.7720,0,U,60491,999,9823,.13919757E-2,.89545E-3,0
FLOCK 4BE-17,2024-149AA,2026-05-21T04:17:40.856640,15.38910372,.00026443,97.3769,224.3529,32.3659,327.7748,0,U,60492,999,9810,.29259299E-3,.11186E-3,0
NUSAT-50 (NANCY ROMAN),2024-149AB,2026-05-21T05:10:51.722688,15.29329996,.00017878,97.3784,222.6703,305.1975,54.9097,0,U,60493,999,9800,.22404207E-3,.6298E-4,0
FLOCK 4BE-22,2024-149AC,2026-05-21T04:25:30.289440,15.40267443,.00034043,97.3729,224.5085,34.6328,325.5140,0,U,60494,999,9814,.28688461E-3,.11468E-3,0
FLOCK 4BE-34,2024-149AD,2026-05-21T04:50:30.340320,15.40296608,.00037569,97.3774,225.3306,45.4756,314.6797,0,U,60495,999,9817,.26224135E-3,.10485E-3,0
TYCHE,2024-149AE,2026-05-21T05:58:08.620896,15.25826572,.00029975,97.3752,219.4260,47.0206,313.1283,0,U,60496,999,9779,.12172153E-3,.3041E-4,0
FLOCK 4BE-32,2024-149AF,2026-05-21T04:28:34.768992,15.41138032,.00036149,97.3717,224.8429,40.4015,319.7500,0,U,60497,999,9817,.31677446E-3,.13045E-3,0
NUSAT-48 (HENRIETTA LEAVITT),2024-149AG,2026-05-21T05:04:37.402464,15.29948093,.00042185,97.3902,222.8480,33.4675,326.6831,0,U,60498,999,9801,.23033552E-3,.6603E-4,0
FLOCK 4BE-30,2024-149AH,2026-05-21T04:43:15.772512,15.49852382,.00019244,97.3780,225.9482,169.4928,190.6364,0,U,60499,999,9758,.13002342E-2,.72963E-3,0
